[{"OBJECT_NAME":"STARLINK-3501","OBJECT_ID":"2022-016AL","EPOCH":"2026-03-09T23:21:25.524576","MEAN_MOTION":15.0883978,"ECCENTRICITY":0.00014192,"INCLINATION":53.2188,"RA_OF_ASC_NODE":307.8528,"ARG_OF_PERICENTER":95.3022,"MEAN_ANOMALY":264.8133,"EPHEMERIS_TYPE":0,"CLASSIFICATION_TYPE":"U","NORAD_CAT_ID":51748,"ELEMENT_SET_NO":999,"REV_AT_EPOCH":22374,"BSTAR":-6.4429396e-5,"MEAN_MOTION_DOT":-1.313e-5,"MEAN_MOTION_DDOT":0},{"OBJECT_NAME":"OBJECT T","OBJECT_ID":"2018-099T","EPOCH":"2026-03-09T14:32:29.418720","MEAN_MOTION":15.09436097,"ECCENTRICITY":0.0004517,"INCLINATION":97.4347,"RA_OF_ASC_NODE":115.9313,"ARG_OF_PERICENTER":320.9739,"MEAN_ANOMALY":39.1164,"EPHEMERIS_TYPE":0,"CLASSIFICATION_TYPE":"U","NORAD_CAT_ID":43775,"ELEMENT_SET_NO":999,"REV_AT_EPOCH":39729,"BSTAR":0.00032877,"MEAN_MOTION_DOT":5.2e-5,"MEAN_MOTION_DDOT":0}]
